IRIDIUM 112             
1 41925U 17003J   23248.16437943  .00000349  00000+0  11756-3 0  9996
2 41925  86.4023 152.9508 0002019  88.8664 271.2763 14.34219500347672
IRIDIUM 111             
1 41926U 17003K   23248.15169192  .00000357  00000+0  12048-3 0  9998
2 41926  86.4026 153.0042 0002505  84.0552 276.0930 14.34219967347693
IRIDIUM 113             
1 42803U 17039A   23247.36420519  .00000461  00000+0  15743-3 0  9998
2 42803  86.3992  27.0604 0002220  94.5373 265.6076 14.34219141325442
IRIDIUM 123             
1 42804U 17039B   23247.54522113  .00000093  00000+0  26124-4 0  9999
2 42804  86.3934  58.4972 0002228  99.5685 260.5763 14.34217775324238
IRIDIUM 120             
1 42805U 17039C   23247.63693203  .00000396  00000+0  13431-3 0  9991
2 42805  86.3987  26.8604 0002197  91.6967 268.4480 14.34220549325472
IRIDIUM 115             
1 42806U 17039D   23248.14760938  .00000517  00000+0  14778-3 0  9999
2 42806  86.4525  26.6317 0002531  94.9629 265.1861 14.43298615327719
IRIDIUM 118             
1 42807U 17039E   23247.71648126  .00000098  00000+0  27831-4 0  9995
2 42807  86.3933  58.4280 0002093  92.0922 268.0514 14.34217138324267
IRIDIUM 117             
1 42808U 17039F   23248.22387530  .00000104  00000+0  30001-4 0  9993
2 42808  86.3934  58.1824 0002193  91.7200 268.4247 14.34216953324368
